STARLINK-1611           
1 46147U 20057AG  23347.37647138 -.00000065  00000+0  14537-4 0  9999
2 46147  53.0552  25.6789 0001343  91.2297 268.8846 15.06401144184137
STARLINK-1616           
1 46148U 20057AH  23347.38201577  .00000251  00000+0  35766-4 0  9997
2 46148  53.0553   5.6556 0001460  93.1295 266.9861 15.06393334183156
STARLINK-1620           
1 46149U 20057AJ  23348.19195758  .00001659  00000+0  13015-3 0  9996
2 46149  53.0556   2.0019 0001341  88.7169 271.3973 15.06420846183943
STARLINK-1629           
1 46150U 20057AK  23347.39122646  .00000712  00000+0  66723-4 0  9999
2 46150  53.0555  25.6135 0001497  75.0346 285.0808 15.06392745182889
STARLINK-1631           
1 46151U 20057AL  23347.36727556  .00001180  00000+0  98147-4 0  9993
2 46151  53.0553   5.7211 0001535  89.2268 270.8897 15.06390925183154
STARLINK-1634           
1 46152U 20057AM  23347.42072180  .00000795  00000+0  72295-4 0  9994
2 46152  53.0551  25.5172 0001316  82.8528 277.2611 15.06394549182884
STARLINK-1636           
1 46153U 20057AN  23347.31935720  .00000379  00000+0  44320-4 0  9997
2 46153  53.0562   5.9384 0001529  94.7943 265.3221 15.06393531183148
STARLINK-1642           
1 46154U 20057AP  23347.39583424  .00000226  00000+0  34065-4 0  9992
2 46154  53.0556  15.5945 0001372  90.9468 269.1678 15.06395843183021
STARLINK-1667           
1 46155U 20057AQ  23348.15052327  .00001800  00000+0  13967-3 0  9997
2 46155  53.0558 342.2084 0001399  89.1189 270.9960 15.06406871184217
STARLINK-1545           
1 46156U 20057AR  23348.20765569  .00002353  00000+0  17677-3 0  9999
2 46156  53.0563   1.9481 0001414  87.5286 272.5865 15.06408262183950
STARLINK-1587           
1 46157U 20057AS  23348.19475981  .00000149  00000+0  28894-4 0  9999
2 46157  53.0572 342.0071 0001485  92.3032 267.8127 15.06407088184220
STARLINK-1589           
1 46158U 20057AT  23348.19106918  .00001485  00000+0  11855-3 0  9993
2 46158  53.0562 342.0262 0001522  79.2535 280.8625 15.06405299184226
STARLINK-1595           
1 46159U 20057AU  23347.43545216 -.00000445  00000+0 -10972-4 0  9995
2 46159  53.0561  25.4182 0001370 113.0186 247.0948 15.06401561184141
STARLINK-1598           
1 46160U 20057AV  23347.29355530  .00001103  00000+0  92986-4 0  9994
2 46160  53.0564   6.0587 0001571 110.8606 249.2552 15.06388520184396
STARLINK-1600           
1 46161U 20057AW  23347.27143708 -.00000075  00000+0  13881-4 0  9990
2 46161  53.0553   6.1483 0001295  72.6055 287.5076 15.06396546184390
STARLINK-1603           
1 46162U 20057AX  23347.34146899 -.00000205  00000+0  51111-5 0  9997
2 46162  53.0551   5.8303 0001358  93.0377 267.0767 15.06396105184414
STARLINK-1610           
1 46163U 20057AY  23348.13578035  .00002289  00000+0  17247-3 0  9990
2 46163  53.0562 342.2796 0001543  81.8790 278.2374 15.06408350184213
STARLINK-1612           
1 46164U 20057AZ  23348.13209709  .00000602  00000+0  59293-4 0  9995
2 46164  53.0564 342.2885 0001449 107.8638 252.2509 15.06405809184218
STARLINK-1613           
1 46165U 20057BA  23348.16395926  .00031185  00000+0  66557-3 0  9996
2 46165  53.0578 298.4253 0005846  98.6978 261.4690 15.44614884184843
STARLINK-1615           
1 46166U 20057BB  23347.38754387 -.00000062  00000+0  14721-4 0  9998
2 46166  53.0553  25.6350 0001317  76.6885 283.4251 15.06397210182885
STARLINK-1626           
1 46167U 20057BC  23347.40228895 -.00000061  00000+0  14775-4 0  9990
2 46167  53.0567  25.5649 0001198  77.3497 282.7626 15.06395633182880
STARLINK-1627           
1 46168U 20057BD  23348.17725719  .00004840  00000+0  34356-3 0  9997
2 46168  53.0558 332.1712 0001526  92.1677 267.9487 15.06406935184351
STARLINK-1628           
1 46169U 20057BE  23347.35072849  .00000458  00000+0  49625-4 0  9993
2 46169  53.0543  26.1812 0001030  85.5825 274.5282 15.06395044182812
STARLINK-1633           
1 46171U 20057BG  23347.37833029  .00001220  00000+0  10082-3 0  9995
2 46171  53.0556   5.6729 0001421  81.1593 278.9557 15.06396809184417
STARLINK-1635           
1 46172U 20057BH  23348.18922587  .00001942  00000+0  14923-3 0  9993
2 46172  53.0563   2.0351 0001640  78.0672 282.0501 15.06405574183935
STARLINK-1640           
1 46173U 20057BJ  23347.37280061  .00000271  00000+0  37069-4 0  9999
2 46173  53.0559  25.6968 0001486  94.6051 265.5108 15.06395762182877
STARLINK-1641           
1 46174U 20057BK  23347.38017288  .00000476  00000+0  50848-4 0  9997
2 46174  53.0563  25.6555 0001543  69.1342 290.9812 15.06399719182879
STARLINK-1734           
1 46325U 20062A   23347.39167756 -.00003680  00000+0 -22833-3 0  9992
2 46325  53.0552  40.6066 0001444 106.6977 253.4171 15.06389563182362
STARLINK-1654           
1 46326U 20062B   23347.58845460  .00004605  00000+0  32804-3 0  9994
2 46326  53.0554  84.9660 0001337  89.3992 270.7151 15.06378289181330
STARLINK-1673           
1 46327U 20062C   23347.54418198 -.00000576  00000+0 -19800-4 0  9992
2 46327  53.0553  84.9284 0001443  73.1356 286.9791 15.06409906181324
STARLINK-1686           
1 46328U 20062D   23347.98834393  .00000926  00000+0  81049-4 0  9991
2 46328  53.0562  62.9375 0001403  97.3310 262.7838 15.06396769181669
STARLINK-1695           
1 46329U 20062E   23347.49074047  .00001154  00000+0  96317-4 0  9998
2 46329  53.0558  65.1692 0001684  61.3008 298.8150 15.06405005181412
STARLINK-1710           
1 46330U 20062F   23347.54602198  .00002259  00000+0  17046-3 0  9998
2 46330  53.0548  64.9224 0001367  89.9913 270.1233 15.06406044181431
STARLINK-1719           
1 46331U 20062G   23347.51469944  .00000922  00000+0  80781-4 0  9998
2 46331  53.0556  85.0612 0001029  84.8668 275.2438 15.06396161181141
STARLINK-1721           
1 46332U 20062H   23347.47335860  .00010971  00000+0  44469-3 0  9990
2 46332  53.0427  58.7550 0001941 251.8393 108.2392 15.25155663181517
STARLINK-1723           
1 46333U 20062J   23347.54050904  .00001285  00000+0  10514-3 0  9994
2 46333  53.0557  84.9482 0001376  76.8808 283.2334 15.06403440181142
STARLINK-1725           
1 46334U 20062K   23347.54237386  .00001553  00000+0  12312-3 0  9992
2 46334  53.0556  65.2177 0001380  87.0969 273.0178 15.06404516181421
STARLINK-1727           
1 46335U 20062L   23347.56998029  .00001532  00000+0  12172-3 0  9994
2 46335  53.0549  84.8119 0001261  90.3494 269.7640 15.06406702181150
STARLINK-1738           
1 46336U 20062M   23348.15790790 -.00000096  00000+0  12480-4 0  9994
2 46336  53.0554  62.1725 0001281  86.5308 273.5828 15.06388776181704
STARLINK-1750           
1 46337U 20062N   23347.44281704  .00002374  00000+0  17820-3 0  9998
2 46337  53.0554  65.3811 0001388 100.5391 259.5754 15.06406476181411
STARLINK-1752           
1 46338U 20062P   23347.55891928  .00001646  00000+0  12937-3 0  9991
2 46338  53.0549  84.8605 0001255  83.2570 276.8561 15.06405133181149
STARLINK-1759           
1 46340U 20062R   23347.49895370  .00002181  00000+0  16521-3 0  9990
2 46340  53.0557  84.7875 0001183 103.3241 256.7880 15.06409919181134
STARLINK-1760           
1 46341U 20062S   23348.00309629  .00001294  00000+0  10574-3 0  9992
2 46341  53.0563  62.8725 0001367  91.2159 268.8986 15.06391409181685
STARLINK-1762           
1 46342U 20062T   23347.58473827  .00003375  00000+0  24545-3 0  9992
2 46342  53.0554  84.7462 0001341  87.0725 273.0417 15.06383312181334
STARLINK-1764           
1 46343U 20062U   23347.51285227  .00002164  00000+0  16409-3 0  9996
2 46343  53.0567  65.0748 0001335  90.3749 269.7393 15.06408505181421
STARLINK-1765           
1 46344U 20062V   23347.53128465 -.00000202  00000+0  53546-5 0  9996
2 46344  53.0560  64.9865 0001223  84.5423 275.5705 15.06406002181425
STARLINK-1767           
1 46345U 20062W   23347.59947135  .00001439  00000+0  11546-3 0  9990
2 46345  53.0558  84.6836 0001181  88.6790 271.4334 15.06398846181154
STARLINK-1547           
1 46347U 20062Y   23347.95563373  .00000752  00000+0  69377-4 0  9993
2 46347  53.0555  38.0821 0001494  74.5142 285.6012 15.06403410182012
STARLINK-1553           
1 46348U 20062Z   23347.53497108  .00005088  00000+0  36017-3 0  9991
2 46348  53.0549  64.9686 0001402  89.6958 270.4192 15.06403444181426
STARLINK-1575           
1 46349U 20062AA  23347.46540968  .00001237  00000+0  10195-3 0  9998
2 46349  53.0545  40.2860 0001293  83.2875 276.8261 15.06396061181760
STARLINK-1617           
1 46350U 20062AB  23347.49626292  .00001017  00000+0  87148-4 0  9997
2 46350  53.0551  85.1473 0001219  97.5754 262.5374 15.06401654181143
STARLINK-1646           
1 46351U 20062AC  23347.50179474 -.00000319  00000+0 -25302-5 0  9996
2 46351  53.0559  65.1219 0001356  75.0228 285.0911 15.06416955181436
STARLINK-1653           
1 46352U 20062AD  23347.48337357  .00000104  00000+0  25853-4 0  9990
2 46352  53.0565  65.1995 0001504  62.0037 298.1104 15.06404688181422
STARLINK-1656           
1 46353U 20062AE  23347.54786300  .00001957  00000+0  15020-3 0  9995
2 46353  53.0546  84.9121 0001250  90.7498 269.3634 15.06411594181140
STARLINK-1657           
1 46354U 20062AF  23347.60315637  .00000394  00000+0  45355-4 0  9993
2 46354  53.0557  84.6659 0001198  80.1306 279.9819 15.06415406181337
STARLINK-1661           
1 46355U 20062AG  23347.51101141 -.00000339  00000+0 -38750-5 0  9990
2 46355  53.0549  85.0752 0001268  85.1552 274.9582 15.06402355181144
STARLINK-1665           
1 46356U 20062AH  23347.59210501  .00000824  00000+0  74172-4 0  9994
2 46356  53.0560  84.7533 0001649  75.4491 284.6681 15.06407132181155
STARLINK-1666           
1 46357U 20062AJ  23347.45389562  .00003962  00000+0  28483-3 0  9993
2 46357  53.0554  65.3335 0001551  76.2620 283.8542 15.06388906181412
STARLINK-1690           
1 46358U 20062AK  23347.56629818  .00001481  00000+0  11831-3 0  9990
2 46358  53.0553  84.8293 0001252  93.9156 266.1976 15.06404373181152
